IRIDIUM 38              
1 25043U 97069E   25353.72606132  .00000348  00000+0  10772-3 0  9994
2 25043  86.3974 155.1698 0002032 147.8579 212.2743 14.38320060472625
IRIDIUM 42              
1 25077U 97077A   25353.47327596  .00000330  00000+0  10583-3 0  9997
2 25077  86.3979 161.6720 0001533 110.7371 249.3990 14.36537529467794
IRIDIUM 45              
1 25104U 97082A   25353.40563781  .00026884  00000+0  75493-3 0  9998
2 25104  86.3537 317.3915 0097341 355.9765   4.0688 15.31675695480296
IRIDIUM 24              
1 25105U 97082B   25353.77047486  .00000341  00000+0  97241-4 0  9994
2 25105  86.3906   1.5686 0011419 173.5260 186.6090 14.42333898469962
IRIDIUM 51              
1 25262U 98018A   25353.43289241  .00076815  00000+0  78519-3 0  9993
2 25262  86.3727 322.8033 0046145 244.8476 114.8001 15.63389774475697
IRIDIUM 57              
1 25273U 98019B   25353.67038455  .00000264  00000+0  84063-4 0  9998
2 25273  86.3953  67.4831 0002166  98.4988 261.6454 14.36056133451409
